{
   "NEO_data": [
      {
         "id": "3842883",
         "name": "(2019 LH5)",
         "velocity": {
            "kilometers_per_second": "21.649375004",
            "kilometers_per_hour": "77937.7500145292",
            "miles_per_hour": "48427.4869465279"
         },
         "miss_distance": {
            "astronomical": "0.0381963702",
            "lunar": "14.8583880078",
            "kilometers": "5714095.623651474",
            "miles": "3550574.3782153812"
         },
         "ODD": "2021-06-27 06:21:21",
         "epoch_osculation": "2460000.5",
         "eccentricity": ".7058785466102214",
         "semi_major_axis": "1.602790623813082",
         "inclination": "2.999399233028312",
         "ascending_node_longitude": "120.7398568259836",
         "perihelion_distance": ".4714151077554135",
         "perihelion_argument": "269.2558509196818",
         "aphelion_distance": "2.73416613987075",
         "mean_anomaly": "271.4727854338047",
         "mean_motion": ".485723240918619"
      },
      {
         "id": "54054314",
         "name": "(2020 RG6)",
         "velocity": {
            "kilometers_per_second": "15.2614115936",
            "kilometers_per_hour": "54941.0817367991",
            "miles_per_hour": "34138.2515936239"
         },
         "miss_distance": {
            "astronomical": "0.4704593941",
            "lunar": "183.0087043049",
            "kilometers": "70379723.278850567",
            "miles": "43731932.1688371446"
         },
         "ODD": "2022-10-03 06:47:59",
         "epoch_osculation": "2460000.5",
         "eccentricity": ".5748140055764935",
         "semi_major_axis": ".980808432792545",
         "inclination": "1.124172425163914",
         "ascending_node_longitude": "310.8181155305888",
         "perihelion_distance": ".4170260088358592",
         "perihelion_argument": "266.7705748426982",
         "aphelion_distance": "1.544590856749231",
         "mean_anomaly": "252.0790941342149",
         "mean_motion": "1.01467693212553"
      },
      {
         "id": "54099948",
         "name": "(2020 XV4)",
         "velocity": {
            "kilometers_per_second": "8.7148731356",
            "kilometers_per_hour": "31373.5432880546",
            "miles_per_hour": "19494.2997169581"
         },
         "miss_distance": {
            "astronomical": "0.1951842105",
            "lunar": "75.9266578845",
            "kilometers": "29199142.148431635",
            "miles": "18143505.605501163"
         },
         "ODD": "2021-04-15 23:20:03",
         "epoch_osculation": "2459200.5",
         "eccentricity": ".4477196580255035",
         "semi_major_axis": "1.266093244922294",
         "inclination": "2.085961421406959",
         "ascending_node_longitude": "231.413508344741",
         "perihelion_distance": ".6992384102772846",
         "perihelion_argument": "120.6764458178308",
         "aphelion_distance": "1.832948079567304",
         "mean_anomaly": "42.63105968629422",
         "mean_motion": ".6918397904420707"
      },
      {
         "id": "2162361",
         "name": "162361 (2000 AF6)",
         "velocity": {
            "kilometers_per_second": "18.5568022455",
            "kilometers_per_hour": "66804.4880837327",
            "miles_per_hour": "41509.7109429171"
         },
         "miss_distance": {
            "astronomical": "0.4837866786",
            "lunar": "188.1930179754",
            "kilometers": "72373456.652934582",
            "miles": "44970780.6413259516"
         },
         "ODD": "2023-02-12 04:55:33",
         "epoch_osculation": "2460000.5",
         "eccentricity": ".4112217338065953",
         "semi_major_axis": ".8771656111841978",
         "inclination": "2.69667641486197",
         "ascending_node_longitude": "110.651909058573",
         "perihelion_distance": ".5164560477175101",
         "perihelion_argument": "200.3205246796856",
         "aphelion_distance": "1.237875174650885",
         "mean_anomaly": "187.7795469921787",
         "mean_motion": "1.199724915728106"
      },
      {
         "id": "2261938",
         "name": "261938 (2006 OB5)",
         "velocity": {
            "kilometers_per_second": "3.2731092457",
            "kilometers_per_hour": "11783.1932845254",
            "miles_per_hour": "7321.6180717097"
         },
         "miss_distance": {
            "astronomical": "0.4069493575",
            "lunar": "158.3033000675",
            "kilometers": "60878757.079868525",
            "miles": "37828305.527594645"
         },
         "ODD": "2021-06-13 08:27:04",
         "epoch_osculation": "2460000.5",
         "eccentricity": ".2186337100288581",
         "semi_major_axis": "1.533182148674633",
         "inclination": ".7104110854482993",
         "ascending_node_longitude": "356.1513632758142",
         "perihelion_distance": "1.197976847359882",
         "perihelion_argument": "357.3774600648259",
         "aphelion_distance": "1.868387449989385",
         "mean_anomaly": "237.9348244805378",
         "mean_motion": ".5191746071129969"
      },
      {
         "id": "2523599",
         "name": "523599 (2003 RM)",
         "velocity": {
            "kilometers_per_second": "12.4316948402",
            "kilometers_per_hour": "44754.1014246779",
            "miles_per_hour": "27808.4581880172"
         },
         "miss_distance": {
            "astronomical": "0.4251710279",
            "lunar": "165.3915298531",
            "kilometers": "63604680.159550573",
            "miles": "39522115.5862929874"
         },
         "ODD": "2022-12-05 09:52:15",
         "epoch_osculation": "2460000.5",
         "eccentricity": ".6008099238433672",
         "semi_major_axis": "2.921436147078641",
         "inclination": "10.85659311650778",
         "ascending_node_longitude": "336.6515095306705",
         "perihelion_distance": "1.166208318039063",
         "perihelion_argument": "324.6377744621923",
         "aphelion_distance": "4.67666397611822",
         "mean_anomaly": "334.5136070594077",
         "mean_motion": ".1973828775849216"
      },
      {
         "id": "3009717",
         "name": "(1997 AC11)",
         "velocity": {
            "kilometers_per_second": "24.2484611524",
            "kilometers_per_hour": "87294.4601484668",
            "miles_per_hour": "54241.382751696"
         },
         "miss_distance": {
            "astronomical": "0.4289525283",
            "lunar": "166.8625335087",
            "kilometers": "64170384.564794721",
            "miles": "39873628.0038643098"
         },
         "ODD": "2023-03-01 05:59:00",
         "epoch_osculation": "2460000.5",
         "eccentricity": ".3679884282433258",
         "semi_major_axis": ".9132160507670236",
         "inclination": "31.69358021932694",
         "ascending_node_longitude": "116.9305768284601",
         "perihelion_distance": ".5771631115986894",
         "perihelion_argument": "141.5700961983758",
         "aphelion_distance": "1.249268989935358",
         "mean_anomaly": "225.7573065936596",
         "mean_motion": "1.129389562443196"
      },
      {
         "id": "3013648",
         "name": "(1998 MS2)",
         "velocity": {
            "kilometers_per_second": "22.2050148712",
            "kilometers_per_hour": "79938.0535361414",
            "miles_per_hour": "49670.3977652763"
         },
         "miss_distance": {
            "astronomical": "0.4915242909",
            "lunar": "191.2029491601",
            "kilometers": "73530986.971900383",
            "miles": "45690036.6291879654"
         },
         "ODD": "2023-03-01 05:59:00",
         "epoch_osculation": "2460000.5",
         "eccentricity": ".402582305878259",
         "semi_major_axis": "1.731925737853121",
         "inclination": "19.23772485554286",
         "ascending_node_longitude": "268.3619455438771",
         "perihelion_distance": "1.034683080698307",
         "perihelion_argument": "320.2536146831723",
         "aphelion_distance": "2.429168395007936",
         "mean_anomaly": "314.2006490929903",
         "mean_motion": ".4324243831115816"
      },
      {
         "id": "3728523",
         "name": "(2015 SY)",
         "velocity": {
            "kilometers_per_second": "14.7861833167",
            "kilometers_per_hour": "53230.2599399609",
            "miles_per_hour": "33075.2134610274"
         },
         "miss_distance": {
            "astronomical": "0.4499375524",
            "lunar": "175.0257078836",
            "kilometers": "67309699.472053388",
            "miles": "41824307.8330092344"
         },
         "ODD": "2021-04-15 14:40:56",
         "epoch_osculation": "2460000.5",
         "eccentricity": ".4870499571242659",
         "semi_major_axis": ".9186872768608106",
         "inclination": "3.168963966078045",
         "ascending_node_longitude": "182.6105484779181",
         "perihelion_distance": ".4712406780551442",
         "perihelion_argument": "43.55104948952879",
         "aphelion_distance": "1.366133875666477",
         "mean_anomaly": "238.1609198002083",
         "mean_motion": "1.119315508901656"
      }
   ]
}